ATS 1                   
1 02608U 66110A   08167.00381684  .00000112  00000-0  10000-3 0  8573
2 02608   8.5696 312.5639 0006166 186.7265 173.2932  1.00386806 68828
ATS 3                   
1 03029U 67111A   08166.45150967 -.00000096  00000-0  10000-3 0  3543
2 03029   9.9993 320.1971 0014754  33.3191 326.7788  1.00272420148696
ORIZURU (DEBUT)         
1 20479U 90013B   08167.12656130 -.00000037  00000-0 -22343-5 0  9701
2 20479  99.0203 152.1508 0538737 277.1219  76.8955 12.83674152859934
SURFSAT                 
1 23711U 95059B   08167.02496464 -.00000053  00000-0 -15960-4 0  9826
2 23711 100.2932 174.6507 0367660 236.3869 120.1615 13.12559248604262
MAQSAT H                
1 25023U 97066A   08167.30054599  .00000165  00000-0  14597-2 0  5027
2 25023   7.8296  56.4334 6493918 113.3860 324.6621  3.09453395119986
MAQSAT B                
1 25024U 97066B   08166.43881197  .00000005  00000-0  52725-4 0  5461
2 25024   7.8361  53.0492 6503438 119.4814 319.4623  3.08761027119889
TEAMSAT                 
1 25025U 97066C   08167.48298510  .00000134  00000-0  13675-2 0  5573
2 25025   7.7895  65.7415 6506275  94.5125 336.6180  3.07910616119570
OPAL (OO-38)            
1 26063U 00004C   08167.68872580 -.00000047  00000-0  43000-5 0  2365
2 26063 100.1921 242.0213 0036694 213.1413 146.7463 14.35837493439352
FALCONSAT               
1 26064U 00004D   08166.70971538 -.00000065  00000-0 -20232-5 0  2331
2 26064 100.1927 239.1654 0037864 222.1334 137.6933 14.35394282439093
PICOSAT 1 & 2 [TETHERED]
1 26080U 00004H   08167.24424916  .00000083  00000-0  44759-4 0  8346
2 26080 100.1876 261.4398 0032736 170.4691 189.7115 14.40233380438660
PICOSAT 3               
1 26091U 00004J   08167.75505747  .00000132  00000-0  56665-4 0  3413
2 26091 100.1853 271.1526 0032288 137.5368 222.8323 14.43238786438562
PICOSAT 4               
1 26092U 00004K   08167.74175190  .00000085  00000-0  45431-4 0  1917
2 26092 100.1776 256.8208 0035767 165.1228 195.1009 14.40188365437950
PICOSAT 5               
1 26093U 00004L   08167.72160402  .00000222  00000-0  80942-4 0   778
2 26093 100.1862 276.9113 0034121 123.3677 237.0789 14.44722937439138
PICOSAT 6               
1 26094U 00004M   08167.72316236 -.00000019  00000-0  12731-4 0  5879
2 26094 100.1827 255.4073 0035910 174.8153 185.3371 14.39507813437480
SNAP 1                  
1 26386U 00033C   08167.17050699 -.00000011  00000-0  75665-5 0  4576
2 26386  98.4135 185.3257 0010735 259.9933 100.0054 14.65062525425427
CHAMP                   
1 26405U 00039B   08167.24546931  .00004698  00000-0  23964-4 0  5671
2 26405  87.2276 102.2411 0003529  74.1453 286.0214 15.80959914451593
PICOSAT 9               
1 26930U 01043B   08167.37524826 -.00000062  00000-0  83659-5 0  8924
2 26930  67.0025 270.2641 0005621 312.3455  47.7161 14.30024180350299
PROBA 1                 
1 26958U 01049B   08167.82032284 -.00000027  00000-0  31362-5 0  5968
2 26958  97.6707 236.5155 0082666 142.0328 218.6770 14.89579427361280
CUTE-1 (CO-55)          
1 27844U 03031E   08167.25333185  .00000035  00000-0  36490-4 0  3284
2 27844  98.7144 175.5466 0010629 117.6072 242.6178 14.20583767257160
CANX-1                  
1 27847U 03031H   08166.96912009  .00000019  00000-0  28917-4 0  2648
2 27847  98.7098 176.2509 0010267  99.7026 260.5303 14.20922455257142
CUBESAT XI-IV (CO-57)   
1 27848U 03031J   08167.46248810  .00000034  00000-0  36394-4 0  2798
2 27848  98.7157 174.8497 0010509 121.0212 239.2003 14.20392436257166
NAXING 1                
1 28221U 04012B   08167.12660268  .00000199  00000-0  27425-4 0  8773
2 28221  97.5383 215.5389 0011471 343.7383  16.3453 14.87816329225730
ST5-A                   
1 28980U 06008A   08167.54453023  .00001054  00000-0  68106-4 0  7026
2 28980 105.6478 162.2208 2365193 284.4193  50.7542 10.59432804 86127
ST5-B                   
1 28981U 06008B   08167.54919918  .00001906  17730-5  83883-4 0  7384
2 28981 105.6611 173.6766 2356650 274.9299  58.9065 10.69132775 86542
ST5-C                   
1 28982U 06008C   08167.07777188  .00001581  17473-5  84610-4 0  7432
2 28982 105.6731 170.4757 2362336 279.0880  55.2390 10.65973253 86351
GENESIS 1               
1 29252U 06029A   08167.31471913 -.00000163  00000-0  19937-5 0  5270
2 29252  64.5079  88.3396 0058085 265.0818  94.3664 15.03216913105768
FALCONSAT-3             
1 30776U 07006E   08167.38225251  .00000159  00000-0  14680-4 0  3336
2 30776  35.4325 164.4397 0001615 341.6341  18.4317 15.03003042 69878
GENESIS 2               
1 31789U 07028A   08167.18562822  .00000041  00000-0  16468-4 0  2707
2 31789  64.5094 119.2721 0041011 316.0413  43.7442 15.02872849 52979
